Skip Page Navigation
NASA Logo - Jet Propulsion Laboratory				+ View the NASA Portal
+ Center for Near-Earth Object Studies			
JPL Home	Earth	Solar System	Stars & Galaxies	Technology

JPL Solar System Dynamics
BODIES		ORBITS		EPHEMERIDES		TOOLS		PHYSICAL DATA		DISCOVERY		FAQ		SITE MAP

IMPORTANT: The SSD Announcement email list is now available. Major changes are coming in the near future, including possible hostname and/or URL changes. To be notified of such changes, subscribe to this email list.

Please visit this page for more details.


Don't show this message again
HORIZONS Web-Interface
This tool provides a web-based limited interface to JPL's HORIZONS system which can be used to generate ephemerides for solar-system bodies. Full access to HORIZONS features is available via the primary telnet interface. HORIZONS system news shows recent changes and improvements. A web-interface tutorial is available to assist new users.
Current Settings
Ephemeris Type [change] : 	ELEMENTS
Target Body [change] : 	Venus Barycenter [2]
Center [change] : 	Solar System Barycenter (SSB) [500@0]
Time Span [change] : 	Start=JD 2458850.0, Stop=JD 2464329.0, Intervals=500
Table Settings [change] : 	CSV format=YES
Display/Output [change] : 	default (formatted HTML)
Object Data Page
 Revised: July 31, 2013                 Venus                           299 / 2
 
 PHYSICAL DATA (updated 2019-Apr-22):
  Vol. Mean Radius (km) =  6051.84+-0.01 Density (g/cm^3)      =  5.204
  Mass x10^23 (kg)      =    48.685      Volume (x10^10 km^3)  = 92.843
  Sidereal rot. period  =   243.018484 d Sid. Rot. Rate (rad/s)= -0.00000029924
  Mean solar day        =   116.7490 d   Equ. gravity  m/s^2   =  8.870
  Mom. of Inertia       =     0.33       Core radius (km)      = ~3200
  Geometric Albedo      =     0.65       Potential Love # k2   = ~0.25
  GM (km^3/s^2)         = 324858.592     Equatorial Radius, Re = 6051.893 km
  GM 1-sigma (km^3/s^2) =    +-0.006     Mass ratio (Sun/Venus)= 408523.72
  Atmos. pressure (bar) =  90            Max. angular diam.    =   60.2"
  Mean Temperature (K)  = 735            Visual mag. V(1,0)    =   -4.40
  Obliquity to orbit    = 177.3 deg      Hill's sphere rad.,Rp =  167.1
  Sidereal orb. per., y =   0.61519726   Orbit speed, km/s     =   35.021
  Sidereal orb. per., d = 224.70079922   Escape speed, km/s    =   10.361
                                 Perihelion  Aphelion    Mean
  Solar Constant (W/m^2)         2759        2650        2614
  Maximum Planetary IR (W/m^2)    153         153         153
  Minimum Planetary IR (W/m^2)    153         153         153
Results
*******************************************************************************
Ephemeris / WWW_USER Fri May 15 19:40:56 2020 Pasadena, USA      / Horizons    
*******************************************************************************
Target body name: Venus Barycenter (299)          {source: DE431mx}
Center body name: Solar System Barycenter (0)     {source: DE431mx}
Center-site name: BODY CENTER
*******************************************************************************
Start time      : A.D. 2020-Jan-01 12:00:00.0000 TDB
Stop  time      : A.D. 2035-Jan-01 12:00:00.0000 TDB
Step-size       : 500 steps
*******************************************************************************
Center geodetic : 0.00000000,0.00000000,0.0000000 {E-lon(deg),Lat(deg),Alt(km)}
Center cylindric: 0.00000000,0.00000000,0.0000000 {E-lon(deg),Dxy(km),Dz(km)}
Center radii    : (undefined)                                                  
Keplerian GM    : 2.9630710189377173E-04 au^3/d^2
Output units    : AU-D, deg, Julian Day Number (Tp)                            
Output type     : GEOMETRIC osculating elements
Output format   : 10
Reference frame : ICRF/J2000.0                                                 
Coordinate systm: Ecliptic and Mean Equinox of Reference Epoch                 
*******************************************************************************
            JDTDB,            Calendar Date (TDB),                     EC,                     QR,                     IN,                     OM,                      W,                     Tp,                      N,                     MA,                     TA,                      A,                     AD,                     PR,
**************************************************************************************************************************************************************************************************************************************************************************************************************************************************
$$SOE
2461479.920000000, A.D. 2027-Mar-15 10:04:48.0000,  5.916341302894848E-03,  7.274827180386593E-01,  3.393664781618972E+00,  7.675981742258017E+01,  1.048079629773948E+02,  2.461430768317454E+06,  1.575411617309776E+00,  7.743413169246506E+01,  7.809690646186372E+01,  7.318123697880055E-01,  7.361420215373516E-01,  2.285117083335641E+02,
2461490.878000000, A.D. 2027-Mar-26 09:04:19.2000,  2.548628469357837E-03,  7.298240681140298E-01,  3.390883148784817E+00,  7.675019657984789E+01,  1.060331447125173E+02,  2.461431307423203E+06,  1.575810494464739E+00,  9.387194007756874E+01,  9.416326084451794E+01,  7.316888712018872E-01,  7.335536742897446E-01,  2.284538662894757E+02,
2461501.836000000, A.D. 2027-Apr-06 08:03:50.4000,  1.876691187504087E-03,  7.294260760487086E-01,  3.388373823476757E+00,  7.672681769466162E+01,  8.925587252967819E+00,  2.461597708415916E+06,  1.578694268144781E+00,  2.086467665206797E+02,  2.085438802210252E+02,  7.307975573845015E-01,  7.321690387202944E-01,  2.280365535393105E+02,
2461512.794000000, A.D. 2027-Apr-17 07:03:21.6000,  5.207292298883882E-03,  7.254359222728357E-01,  3.386366964359430E+00,  7.669149251854061E+01,  3.522634294308885E-01,  2.461591793136214E+06,  1.583776761927263E+00,  2.348830038527043E+02,  2.343967330096219E+02,  7.292332529751434E-01,  7.330305836774511E-01,  2.273047620435622E+02,
2461523.752000000, A.D. 2027-Apr-28 06:02:52.8000,  8.329224976163152E-03,  7.210806428649565E-01,  3.385056283670202E+00,  7.664713816027799E+01,  1.240072022850869E+01,  2.461598888988265E+06,  1.590630035169770E+00,  2.404848497143415E+02,  2.396585233991870E+02,  7.271371316227644E-01,  7.331936203805721E-01,  2.263254132263237E+02,
2461534.710000000, A.D. 2027-May-09 05:02:24.0000,  1.077897158548499E-02,  7.168748676367817E-01,  3.384579879640045E+00,  7.659757241488182E+01,  2.749604178052186E+01,  2.461607881793068E+06,  1.598706129073839E+00,  2.430198059462380E+02,  2.419258152659740E+02,  7.246862400264183E-01,  7.324976124160550E-01,  2.251820978559423E+02,
2461545.668000000, A.D. 2027-May-20 04:01:55.2000,  1.232388794412818E-02,  7.131832096354130E-01,  3.385005673784332E+00,  7.654721822163569E+01,  4.364267943363910E+01,  2.461617538950225E+06,  1.607362465837777E+00,  2.444773322246972E+02,  2.432114378349543E+02,  7.220820681295055E-01,  7.309809266235979E-01,  2.239693956100709E+02,
2461556.626000000, A.D. 2027-May-31 03:01:26.4000,  1.282222715874631E-02,  7.103119917713452E-01,  3.386321734341127E+00,  7.650075347844110E+01,  6.034721377857394E+01,  2.461627579535742E+06,  1.615894472013027E+00,  2.453465738242675E+02,  2.440201762022454E+02,  7.195380723848298E-01,  7.287641529983144E-01,  2.227868256468036E+02,
2461567.584000000, A.D. 2027-Jun-11 02:00:57.6000,  1.222452759018080E-02,  7.084972498941542E-01,  3.388431809161532E+00,  7.646269492473112E+01,  7.747734415871361E+01,  2.461637948342931E+06,  1.623580275215219E+00,  2.457578407396754E+02,  2.444886102183293E+02,  7.172654815630055E-01,  7.260337132318568E-01,  2.217321838011853E+02,
2461578.542000000, A.D. 2027-Jun-22 01:00:28.8000,  1.057928697153095E-02,  7.078880926667638E-01,  3.391158363690024E+00,  7.643694116834898E+01,  9.508301580119847E+01,  2.461648699303687E+06,  1.629739714606521E+00,  2.456618559127391E+02,  2.445633525219429E+02,  7.154571188428267E-01,  7.230261450188895E-01,  2.208941690341744E+02,
2461589.500000000, A.D. 2027-Jul-03 00:00:00.0000,  8.033503095786597E-03,  7.085318339675887E-01,  3.394254835749349E+00,  7.642632595429565E+01,  1.135044512167732E+02,  2.461660058065520E+06,  1.633804612701291E+00,  2.447219070908424E+02,  2.438930676604736E+02,  7.142699236101377E-01,  7.200080132526869E-01,  2.203445853937119E+02,
2461600.458000000, A.D. 2027-Jul-13 22:59:31.2000,  4.829469519007961E-03,  7.103607121359150E-01,  3.397427494699688E+00,  7.643224732381032E+01,  1.342972218981288E+02,  2.461672985826232E+06,  1.635390694867751E+00,  2.413886678617789E+02,  2.409042364112328E+02,  7.138080262410695E-01,  7.172553403462240E-01,  2.201308843995301E+02,
2461611.416000000, A.D. 2027-Jul-24 21:59:02.4000,  1.395915844815684E-03,  7.131123721680633E-01,  3.400365414171749E+00,  7.645444173599114E+01,  1.757603402527934E+02,  2.461698684831168E+06,  1.634356191816644E+00,  2.173716454282436E+02,  2.172746868882191E+02,  7.141092085271751E-01,  7.151060448862867E-01,  2.202702212666672E+02,
2461622.374000000, A.D. 2027-Aug-04 20:58:33.6000,  2.596675370547146E-03,  7.132809408456535E-01,  3.402774976609297E+00,  7.649095846587801E+01,  3.219245671924467E+02,  2.461568015167169E+06,  1.630830971281477E+00,  8.865006814445870E+01,  8.894756405097284E+01,  7.151379218739278E-01,  7.169949029022020E-01,  2.207463595795697E+02,
2461633.332000000, A.D. 2027-Aug-15 19:58:04.8000,  5.870254556446249E-03,  7.125797134262496E-01,  3.404413441369201E+00,  7.653835219499896E+01,  3.485795458413386E+02,  2.461584449118358E+06,  1.625204755233400E+00,  7.944469169360370E+01,  8.010686586324681E+01,  7.167874381510593E-01,  7.209951628758691E-01,  2.215105504957124E+02,
